{"type": "FeatureCollection", "features": [{"type": "Feature", "properties": {"norad_id": 28890, "name": "BEIJING 1", "group": "dmc", "lat": -49.83304765544969, "lon": -71.4161646546373, "alt_km": 691.45076372309, "timestamp": "2025-12-16T23:36:35.851721+00:00", "meta": {"OBJECT_NAME": "BEIJING 1", "OBJECT_ID": "2005-043A", "EPOCH": "2025-12-16T07:47:31.639200", "MEAN_MOTION": 14.63370003, "ECCENTRICITY": 0.00154897, "INCLINATION": 98.2647, "RA_OF_ASC_NODE": 117.8393, "ARG_OF_PERICENTER": 130.5722, "MEAN_ANOMALY": 229.6831, "EPHEMERIS_TYPE": 0, "CLASSIFICATION_TYPE": "U", "NORAD_CAT_ID": 28890, "ELEMENT_SET_NO": 999, "REV_AT_EPOCH": 7390, "BSTAR": 6.5084317e-05, "MEAN_MOTION_DOT": 2.88e-06, "MEAN_MOTION_DDOT": 0}, "tle": {"line1": "1 28890U 05043A   25350.32467175  .00000288  00000+0  65084-4 0  9993", "line2": "2 28890  98.2647 117.8393 0015489 130.5722 229.6831 14.63370003 73901"}}, "geometry": {"type": "Point", "coordinates": [-71.4161646546373, -49.83304765544969]}}, {"type": "Feature", "properties": {"norad_id": 33320, "name": "HUANJING 1A (HJ-1A)", "group": "dmc", "lat": -23.00804896435742, "lon": 155.83177316515022, "alt_km": 638.0051341418948, "timestamp": "2025-12-16T23:36:35.851745+00:00", "meta": {"OBJECT_NAME": "HUANJING 1A (HJ-1A)", "OBJECT_ID": "2008-041A", "EPOCH": "2025-12-16T08:07:39.021312", "MEAN_MOTION": 14.83409599, "ECCENTRICITY": 0.00199519, "INCLINATION": 97.6539, "RA_OF_ASC_NODE": 338.4872, "ARG_OF_PERICENTER": 23.1865, "MEAN_ANOMALY": 337.0245, "EPHEMERIS_TYPE": 0, "CLASSIFICATION_TYPE": "U", "NORAD_CAT_ID": 33320, "ELEMENT_SET_NO": 999, "REV_AT_EPOCH": 93129, "BSTAR": 0.00025224096, "MEAN_MOTION_DOT": 2.026e-05, "MEAN_MOTION_DDOT": 0}, "tle": {"line1": "1 33320U 08041A   25350.33864608  .00002026  00000+0  25224-3 0  9994", "line2": "2 33320  97.6539 338.4872 0019951  23.1865 337.0245 14.83409599931297"}}, "geometry": {"type": "Point", "coordinates": [155.83177316515022, -23.00804896435742]}}, {"type": "Feature", "properties": {"norad_id": 33321, "name": "HUANJING 1B (HJ-1B)", "group": "dmc", "lat": 54.60816769478376, "lon": -28.099320180302016, "alt_km": 588.6760334910814, "timestamp": "2025-12-16T23:36:35.851760+00:00", "meta": {"OBJECT_NAME": "HUANJING 1B (HJ-1B)", "OBJECT_ID": "2008-041B", "EPOCH": "2025-12-16T05:32:53.280672", "MEAN_MOTION": 14.82833754, "ECCENTRICITY": 0.0038205, "INCLINATION": 97.6401, "RA_OF_ASC_NODE": 342.0723, "ARG_OF_PERICENTER": 64.6622, "MEAN_ANOMALY": 295.8541, "EPHEMERIS_TYPE": 0, "CLASSIFICATION_TYPE": "U", "NORAD_CAT_ID": 33321, "ELEMENT_SET_NO": 999, "REV_AT_EPOCH": 93129, "BSTAR": 0.00018998255, "MEAN_MOTION_DOT": 1.506e-05, "MEAN_MOTION_DDOT": 0}, "tle": {"line1": "1 33321U 08041B   25350.23117223  .00001506  00000+0  18998-3 0  9990", "line2": "2 33321  97.6401 342.0723 0038205  64.6622 295.8541 14.82833754931299"}}, "geometry": {"type": "Point", "coordinates": [-28.099320180302016, 54.60816769478376]}}, {"type": "Feature", "properties": {"norad_id": 33446, "name": "YAOGAN-4", "group": "dmc", "lat": -34.625890956594986, "lon": -73.44326074677701, "alt_km": 618.122397956593, "timestamp": "2025-12-16T23:36:35.851772+00:00", "meta": {"OBJECT_NAME": "YAOGAN-4", "OBJECT_ID": "2008-061A", "EPOCH": "2025-12-16T07:34:14.077344", "MEAN_MOTION": 14.82693387, "ECCENTRICITY": 0.00133535, "INCLINATION": 97.9187, "RA_OF_ASC_NODE": 280.3797, "ARG_OF_PERICENTER": 310.8993, "MEAN_ANOMALY": 49.1063, "EPHEMERIS_TYPE": 0, "CLASSIFICATION_TYPE": "U", "NORAD_CAT_ID": 33446, "ELEMENT_SET_NO": 999, "REV_AT_EPOCH": 91856, "BSTAR": 0.00017752381, "MEAN_MOTION_DOT": 1.38e-05, "MEAN_MOTION_DDOT": 0}, "tle": {"line1": "1 33446U 08061A   25350.31544071  .00001380  00000+0  17752-3 0  9991", "line2": "2 33446  97.9187 280.3797 0013353 310.8993  49.1063 14.82693387918560"}}, "geometry": {"type": "Point", "coordinates": [-73.44326074677701, -34.625890956594986]}}, {"type": "Feature", "properties": {"norad_id": 35681, "name": "DEIMOS-1", "group": "dmc", "lat": -23.09197443519609, "lon": 154.7019198436638, "alt_km": 650.9010811582239, "timestamp": "2025-12-16T23:36:35.851784+00:00", "meta": {"OBJECT_NAME": "DEIMOS-1", "OBJECT_ID": "2009-041A", "EPOCH": "2025-12-16T09:03:43.355232", "MEAN_MOTION": 14.74960244, "ECCENTRICITY": 0.00026561, "INCLINATION": 97.7145, "RA_OF_ASC_NODE": 150.8109, "ARG_OF_PERICENTER": 73.5031, "MEAN_ANOMALY": 286.647, "EPHEMERIS_TYPE": 0, "CLASSIFICATION_TYPE": "U", "NORAD_CAT_ID": 35681, "ELEMENT_SET_NO": 999, "REV_AT_EPOCH": 87993, "BSTAR": 0.00014159612, "MEAN_MOTION_DOT": 9.04e-06, "MEAN_MOTION_DDOT": 0}, "tle": {"line1": "1 35681U 09041A   25350.37758513  .00000904  00000+0  14160-3 0  9998", "line2": "2 35681  97.7145 150.8109 0002656  73.5031 286.6470 14.74960244879930"}}, "geometry": {"type": "Point", "coordinates": [154.7019198436638, -23.09197443519609]}}, {"type": "Feature", "properties": {"norad_id": 35683, "name": "UK-DMC 2", "group": "dmc", "lat": 2.0248172728855325, "lon": 125.48601685949427, "alt_km": 645.9185725275938, "timestamp": "2025-12-16T23:36:35.851795+00:00", "meta": {"OBJECT_NAME": "UK-DMC 2", "OBJECT_ID": "2009-041C", "EPOCH": "2025-12-16T08:57:14.510304", "MEAN_MOTION": 14.75631388, "ECCENTRICITY": 0.0001463, "INCLINATION": 97.8554, "RA_OF_ASC_NODE": 125.1725, "ARG_OF_PERICENTER": 95.6041, "MEAN_ANOMALY": 264.5336, "EPHEMERIS_TYPE": 0, "CLASSIFICATION_TYPE": "U", "NORAD_CAT_ID": 35683, "ELEMENT_SET_NO": 999, "REV_AT_EPOCH": 87960, "BSTAR": 0.00015162644, "MEAN_MOTION_DOT": 9.86e-06, "MEAN_MOTION_DDOT": 0}, "tle": {"line1": "1 35683U 09041C   25350.37308461  .00000986  00000+0  15163-3 0  9997", "line2": "2 35683  97.8554 125.1725 0001463  95.6041 264.5336 14.75631388879602"}}, "geometry": {"type": "Point", "coordinates": [125.48601685949427, 2.0248172728855325]}}, {"type": "Feature", "properties": {"norad_id": 40715, "name": "DMC3-FM1", "group": "dmc", "lat": -20.74339240465634, "lon": 35.09598565408956, "alt_km": 618.2466088330484, "timestamp": "2025-12-16T23:36:35.851806+00:00", "meta": {"OBJECT_NAME": "DMC3-FM1", "OBJECT_ID": "2015-032A", "EPOCH": "2025-12-16T06:32:29.760288", "MEAN_MOTION": 14.85449352, "ECCENTRICITY": 0.00043833, "INCLINATION": 97.6694, "RA_OF_ASC_NODE": 217.3363, "ARG_OF_PERICENTER": 308.0301, "MEAN_ANOMALY": 52.0518, "EPHEMERIS_TYPE": 0, "CLASSIFICATION_TYPE": "U", "NORAD_CAT_ID": 40715, "ELEMENT_SET_NO": 999, "REV_AT_EPOCH": 56275, "BSTAR": 0.00014885438, "MEAN_MOTION_DOT": 1.232e-05, "MEAN_MOTION_DDOT": 0}, "tle": {"line1": "1 40715U 15032A   25350.27256667  .00001232  00000+0  14885-3 0  9990", "line2": "2 40715  97.6694 217.3363 0004383 308.0301  52.0518 14.85449352562759"}}, "geometry": {"type": "Point", "coordinates": [35.09598565408956, -20.74339240465634]}}, {"type": "Feature", "properties": {"norad_id": 40716, "name": "DMC3-FM2", "group": "dmc", "lat": 77.95221214777109, "lon": -179.71871923097336, "alt_km": 607.1193494825047, "timestamp": "2025-12-16T23:36:35.851817+00:00", "meta": {"OBJECT_NAME": "DMC3-FM2", "OBJECT_ID": "2015-032B", "EPOCH": "2025-12-16T08:41:53.043072", "MEAN_MOTION": 14.85448575, "ECCENTRICITY": 0.00050623, "INCLINATION": 97.6752, "RA_OF_ASC_NODE": 218.8694, "ARG_OF_PERICENTER": 313.6167, "MEAN_ANOMALY": 46.4628, "EPHEMERIS_TYPE": 0, "CLASSIFICATION_TYPE": "U", "NORAD_CAT_ID": 40716, "ELEMENT_SET_NO": 999, "REV_AT_EPOCH": 56276, "BSTAR": 5.9908939e-05, "MEAN_MOTION_DOT": 4.65e-06, "MEAN_MOTION_DDOT": 0}, "tle": {"line1": "1 40716U 15032B   25350.36241948  .00000465  00000+0  59909-4 0  9991", "line2": "2 40716  97.6752 218.8694 0005062 313.6167  46.4628 14.85448575562761"}}, "geometry": {"type": "Point", "coordinates": [-179.71871923097336, 77.95221214777109]}}, {"type": "Feature", "properties": {"norad_id": 40717, "name": "DMC3-FM3", "group": "dmc", "lat": -34.82790133537764, "lon": -133.50850084179257, "alt_km": 615.4562208694415, "timestamp": "2025-12-16T23:36:35.851828+00:00", "meta": {"OBJECT_NAME": "DMC3-FM3", "OBJECT_ID": "2015-032C", "EPOCH": "2025-12-16T07:36:03.980736", "MEAN_MOTION": 14.85433995, "ECCENTRICITY": 0.00044564, "INCLINATION": 97.6805, "RA_OF_ASC_NODE": 220.4606, "ARG_OF_PERICENTER": 315.3644, "MEAN_ANOMALY": 44.7212, "EPHEMERIS_TYPE": 0, "CLASSIFICATION_TYPE": "U", "NORAD_CAT_ID": 40717, "ELEMENT_SET_NO": 999, "REV_AT_EPOCH": 56276, "BSTAR": 2.5611096e-05, "MEAN_MOTION_DOT": 1.69e-06, "MEAN_MOTION_DDOT": 0}, "tle": {"line1": "1 40717U 15032C   25350.31671274  .00000169  00000+0  25611-4 0  9990", "line2": "2 40717  97.6805 220.4606 0004456 315.3644  44.7212 14.85433995562768"}}, "geometry": {"type": "Point", "coordinates": [-133.50850084179257, -34.82790133537764]}}]}